#dP2022  9 11  0  0  0.00000000      96 __u+U ITR00 FIT  IAC
## 2227      0.00000000   900.00000000 59833 0.0000000000000
+  116   C06C07C08C09C10C11C12C13C14C16C19C20C21C22C23C24C25
+        C26C27C28C29C30C32C33C34C35C36C37C38C39C40C41C42C43
+        C44C45C46E01E02E03E04E05E07E08E09E10E11E12E13E14E15
+        E18E19E21E24E25E26E27E30E31E33E34E36G01G02G03G04G05
+        G06G07G08G09G10G11G12G13G14G15G16G17G18G19G20G21G22
+        G24G25G26G27G28G29G30G31G32J02J03R01R02R03R04R05R07
+        R08R09R11R12R13R14R15R17R18R19R20R21R24R25  0  0  0
++         8  8  9  8  8 10  9  9  6  8  8  6  7  6  6  7  6
++         7  6  6  8  7  7  6  7  6  7  7  8  8  6  6  8  6
++         7  7  7  6  5  5  8  6  6  5  6  6  7  7  7  7  7
++         5  6  6  6  6  8  5  7  7  7  5  6  5  6  6  7  7
++         7  6  6  5  5  6  5  6  6  6  6  5  7  6  6  6  6
++         6  5  6  5  6  7  6  5  6 10  8  5  6  7  6  6  6
++         7  7  6  6  6  6  5  7  6  6  8  6  6  7  0  0  0
%c M  cc GPS ccc cccc cccc cccc cccc ccccc ccccc ccccc ccccc
%c cc cc ccc ccc cccc cccc cccc cccc ccccc ccccc ccccc ccccc
%f  0.0000000  0.000000000  0.00000000000  0.000000000000000
%f  0.0000000  0.000000000  0.00000000000  0.000000000000000
%i    0    0    0    0      0      0      0      0         0
%i    0    0    0    0      0      0      0      0         0
/* INFORMATION & ANALYSIS CENTER (IAC)      ULTRA-RAPID DATA
/* S/V CLOCKS ARE ALIGNED TO GNSS TIME                      
/* G:C1WC2W R:C1PC2P E:C1XC5X C:C2IC6I J:C1CC2S             
/* PCV:IGS14_2218 OL/AL:FES2004  NONE     YN ORB:CoN CLK:CoN
*  2022 09 11 21 30  0.00000000
PC06  -2525.134898  28069.422259 -31281.658637    817.027805
PC07 -17514.243368  30011.304669  23816.958679   -128.238295
PC08 -10114.960180  40725.380349   5007.120054    468.585259
PC09   5948.882873  32023.726462 -26130.206006   -866.620316
PC10  -9329.924131  30169.163980  28018.719011     97.893107
PC11 -15766.297675 -20549.160826 -10268.244298   -414.633472
PC12   1191.546093 -17154.472275 -21935.785122   -521.534989
PC13  -5163.508020  41958.363111  -1879.520399     77.923224
PC14  -8108.239333 -13673.255662  22944.176739    646.406165
PC16  -5805.200145  25457.041534 -32858.991430    138.355410
PC19  17465.584999   7428.993645 -20446.782187   -633.372604
PC20   -524.439287  16924.261745 -22172.289358    554.575165
PC21  19546.796856 -16866.787133  10625.657422   -375.931115
PC22  26217.947402  -6736.991629  -6842.294246   -579.997992
PC23 -16460.552691   3030.293004 -22318.027378    -38.030009
PC24    596.973130 -27717.366076  -3064.281124    -97.854996
PC25 -12299.927645 -16499.088338 -18841.879066   -679.609560
PC26  10736.634808 -22498.964437  12497.277451     -6.178328
PC27 -10184.292088  12203.987505  22917.073517     19.431467
PC28 -22598.244525  -2782.212093  16130.803253     11.874814
PC29  22693.465273  16216.922770    962.494674     12.252788
PC30   8364.764277  20221.100026  17302.294199    502.867059
PC32 -19471.015446  16983.323236 -10527.726651   -808.189228
PC33 -17405.475085  -7448.878436  20493.110485   -638.769119
PC34  -9414.298370 -20413.661606 -16555.000074   -315.693566
PC35  23237.737130   3092.112056 -15128.625830    454.532296
PC36  11646.122852  17335.371959  18541.969201   -162.208828
PC37 -11845.487564  21379.642728 -13466.846010   -165.560154
PC38 -14079.569884  37846.141099  12451.655103     23.581820
PC39 -10110.224880  22308.745070 -34284.828673     -0.418418
PC40 -24760.470956  24189.973958  23918.388147     -3.978808
PC41 -26151.409627   6398.791036   7386.826845    -69.891396
PC42   1781.824522 -17344.501204  21828.215142   -278.143237
PC43 -22313.397994 -16686.421226  -1704.485561     13.718252
PC44   9991.389457 -12569.232027 -22834.698095     47.078825
PC45  16350.373543  -3422.170052  22359.471720    858.520567
PC46    543.353449  27523.275561   4706.393013   -536.200569
PE01   7392.600941  16769.501217  23253.563073   -526.220051
PE02  -7547.748869 -16610.486274 -23299.430566    324.114359
PE03 -19560.371795 -14137.867240  17123.230501   -598.896117
PE04  29416.660815   3280.413392   -339.942332  -1113.416915
PE05   2016.584583 -16919.784485  24202.446242   -144.912700
PE07 -22068.078471   9822.718430 -17101.659712   -704.568927
PE08 -29427.551883  -3128.392195    247.236330   -597.155458
PE09  22130.569251  -9718.929449  17094.713309   -655.207462
PE10  16431.793108  -2090.819801 -24544.364103   -476.178068
PE11  11074.116391 -13315.222519 -24019.295097   2261.677177
PE12  18907.648150   8633.314530 -21078.725696   -164.078768
PE13 -11460.585999  12521.579079  24249.072966    430.558171
PE14 -20772.678076   3655.749145  10555.549874  -1722.943505
PE15 -18889.546676  -8840.702092  21003.066310    721.021057
PE18  25159.722982  -8971.616297 -18489.370910   -987.421345
PE19  17165.293849  15011.343073 -18869.645554  -4557.077854
PE21  -8276.611815  25632.484391  12281.574371   -757.176723
PE24  20785.866310 -19704.524735   7429.330920   -831.623362
PE25   8532.604919 -25666.866309 -12008.217133   -587.403162
PE26   3150.530017  26689.321600  12420.585269  -1601.973150
PE27 -20367.264757  20486.863517  -6460.107589   -389.835135
PE30 -20113.110336   2360.330083 -21593.147984   -829.034430
PE31  20359.768423  -3312.356832  21243.576523   -503.363311
PE33  15130.363553  24866.979463  -5383.814549   -453.634127
PE34 -15246.717201 -24743.536743   5548.216031     -4.033297
PE36  -2613.149738 -26339.241998 -13249.636852   -430.077686
PG01 -15131.042949   -662.595367  21553.361463    285.594750
PG02  17093.051410   9679.385743 -17181.235919   -646.357524
PG03 -20331.539659   7739.980817  15034.798316   -349.363839
PG04 -25430.427621   -356.732355  -7827.094193   -120.126111
PG05  15809.318921   3899.150363 -21185.692552    -96.317108
PG06   6325.706324  25567.765428   3176.872571    457.622140
PG07  -8841.451416  15841.019008 -18808.681565    308.305484
PG08 -26082.030706  -5737.948459  -1672.621292    -84.228751
PG09 -18672.655429   8774.099977 -16826.417909   -297.273362
PG10   8749.659981 -22101.446753  11672.310598     -2.869916
PG11  12185.991250  22137.978763  -8234.256263    -15.851527
PG12  20655.591866  -5491.472812  15437.641463   -276.827427
PG13  21507.074206  13458.384379  -8338.088274    385.687953
PG14 -11005.613726  21989.821394   9903.093298   -104.207374
PG15  26474.047925   3246.491950  -2076.683581    -29.794439
PG16 -10817.540780 -10685.146929 -22055.708084   -523.828336
PG17  -4429.188874  14389.003526  22319.567022    658.168734
PG18   8092.045972 -16846.420872 -18826.811524     51.727256
PG19   7172.340587  16154.952789  19663.705792    209.429161
PG20   6686.388639  16408.120905 -19844.873172    487.205444
PG21 -17936.216402  -9490.999671  18120.954762    159.553039
PG22  -9821.349388 -16480.673359  18862.415322    326.142103
PG24  17465.386439   4318.852206  19346.855744    138.745336
PG25  19719.477535 -16422.537140   5976.790792    370.983292
PG26  -3844.512797 -18008.708697 -19113.313895    228.081064
PG27 -19863.935705 -12782.889086 -12744.649106    212.470217
PG28  -3596.397605  20133.063287  17581.611344    338.721868
PG29  19789.681655  -6131.418317 -16712.734056   -550.752016
PG30  -1134.599518  23771.246182 -11435.535155   -536.889377
PG31  -6921.582025 -25330.774890   1422.472475   -193.012108
PG32    321.110445 -15470.781768  21747.376933   -230.451619
PJ02 -27638.090510  31340.180116  -1142.127830     -4.839116
PJ03 -25709.176721  22714.669004  29574.132833     -1.505461
PR01 -22661.248083    349.720665  11691.557159     14.598873
PR02 -22738.896742   8969.579968  -7371.802487    -22.634311
PR03  -8911.438225  12204.928055 -20528.475164     63.537302
PR04   9518.237325   8337.791278 -22123.025843    157.241784
PR05  22734.794489    132.625537 -11533.058569     99.480064
PR07   8000.655440 -12174.083836  20957.860508     40.825677
PR08  -9750.209093  -8376.807227  22088.867242    -67.127938
PR09  12226.912018 -16254.252448  15466.682056     76.196502
PR11  -2486.586523 -19713.652452 -15990.418046     27.738236
PR12 -10830.397057  -2122.626461 -22965.461124     21.152419
PR13 -12317.868904  14916.632398 -16633.353305    -26.690650
PR14  -6440.923536  24657.429152    842.729424     24.280168
PR15   2917.155607  19070.025942  16710.720764     93.770759
PR17   2839.408004  15971.921807  19709.698146    560.311581
PR18  14687.464719  19856.296153   6308.239439     41.959853
PR19  18595.830300  14765.094962  -9340.712960   -203.340482
PR20  11697.714125  -1856.782574 -22581.040471    -78.199868
PR21  -4046.275968 -16685.642364 -18851.393513   -332.941796
PR24 -11541.049931   3090.510231  22548.467994    114.047415
PR25 -14234.360464 -20439.549960  -5495.425822     13.073340
EOF
